# METAR-Decoder
 Translator for METAR (For transmitting weather codes ), it converts these codes into descriptive JSON object  .

Open the index.html page.

Example for metar codes :
 METAR KBLV 011657Z AUTO 25015G30KT 210V290 3/8SM R32L/1000FT FG BKN005 01/M01 A2984 RMK A02 SLP034
 METAR KHUL 081206Z COR 25015G22KT 110V390 R21C/100FT SN BKN005 06/12 A2984
 METAR SIAC 040853Z AUTO 00000KT 5SM BR CLR 12/11 A2997 RMK AO2 SLP147 T01170111 51011 
